satname,norad_id,inclination_deg,eccentricity,mean_motion_rev_per_day,perigee_km,apogee_km,l1,l2
STARLINK-1404,45686,53.1573,0.0001752,15.3882129,448.39748979900924,450.7899266391687,1 45686U 20035AF  26103.54462643  .00040427  00000+0  10421-2 0  9991,2 45686  53.1573 246.7776 0001752 351.9332   8.1644 15.38821290324321
STARLINK-1413,45689,53.1581,0.000137,15.30619611,473.0237352154618,474.90121047102184,1 45689U 20035AJ  26103.57945722  .00027398  00000+0  92176-3 0  9991,2 45689  53.1581 247.5086 0001370  57.0655 303.0478 15.30619611324230
STARLINK-1417,45693,53.0496,0.0003549,15.14387086,520.3907853354458,525.2890987689143,1 45693U 20035AN  26103.79552991  .00019361  00000+0  10561-2 0  9990,2 45693  53.0496 254.9726 0003549 346.3613  13.7283 15.14387086324217
STARLINK-1420,45695,53.0468,0.0005885,15.61187216,380.24693053418014,388.20623246960804,1 45695U 20035AQ  26103.71943292  .00074679  00000+0  86425-3 0  9998,2 45695  53.0468 212.4921 0005885 309.4541  50.5951 15.61187216324811
STARLINK-1422,45696,53.1566,9.71e-05,15.30793354,472.77870509843615,474.109282127396,1 45696U 20035AR  26103.58618907  .00031892  00000+0  10646-2 0  9997,2 45696  53.1566 247.4727 0000971  45.2718 314.8362 15.30793354324315
STARLINK-1351,45697,53.0492,0.0006473,15.58989644,386.1985758351775,394.96135681978467,1 45697U 20035AS  26103.73008367  .00039026  00000+0  49630-3 0  9991,2 45697  53.0492 212.0276 0006473 314.1180  45.9298 15.58989644324829
STARLINK-1400,45700,53.0455,0.0005145,15.5736776,391.79364269989946,398.7634873162924,1 45700U 20035AV  26103.74340217  .00061435  00000+0  82438-3 0  9992,2 45700  53.0455 213.7904 0005145 266.8060  93.2362 15.57367760324796
STARLINK-1403,45701,53.1593,5.23e-05,15.29805344,476.0352024637559,476.7521863743914,1 45701U 20035AW  26103.62638351  .00017703  00000+0  61582-3 0  9995,2 45701  53.1593 234.4236 0000523  33.5787 326.5247 15.29805344324494
STARLINK-1407,45703,53.0302,0.0003038,15.66278054,367.51564234307534,371.6155464394278,1 45703U 20035AY  26103.40557876  .00031929  00000+0  30730-3 0  9992,2 45703  53.0302 145.6778 0003038 264.2515  95.8153 15.66278054325725
STARLINK-1411,45706,53.0397,0.0005819,15.70557277,353.3839053475158,361.22261071981575,1 45706U 20035BB  26103.60078928  .00082911  00000+0  65822-3 0  9990,2 45706  53.0397 169.7949 0005819 353.2499   6.8439 15.70557277325392
STARLINK-1423,45710,53.0446,0.0006942,15.5998208,383.0120442996922,392.4057447396435,1 45710U 20035BF  26103.71960067  .00071965  00000+0  87245-3 0  9991,2 45710  53.0446 212.3261 0006942 287.3568  72.6685 15.59982080324806
STARLINK-1433,45711,53.0452,0.0006329,15.62384629,376.4933060673811,385.0487318377727,1 45711U 20035BG  26103.76009875  .00073908  00000+0  81667-3 0  9999,2 45711  53.0452 210.6248 0006329 285.1735  74.8578 15.62384629324838
STARLINK-1434,45712,53.0497,0.0002624,15.30245026,473.2823488888371,476.87891750273775,1 45712U 20035BH  26103.74848627  .00032820  00000+0  11137-2 0  9996,2 45712  53.0497 217.2277 0002624 271.2457  88.8242 15.30245026324750
STARLINK-1465,45731,53.0485,0.0005623,15.55872816,395.80551626402485,403.42777801559805,1 45731U 20038B   26103.85051715  .00061877  00000+0  87748-3 0  9992,2 45731  53.0485  53.7222 0005623  66.3827 293.7774 15.55872816321841
STARLINK-1471,45735,53.0468,0.0001811,15.509193,412.8106587683824,415.27078553934643,1 45735U 20038F   26103.91854138  .00014850  00000+0  25947-3 0  9995,2 45735  53.0468 332.9878 0001811  58.0956 302.0228 15.50919300322991
STARLINK-1480,45741,53.0503,0.0002989,15.58010311,391.3921021869737,395.4401366417587,1 45741U 20038M   26103.86380191  .00065990  00000+0  86380-3 0  9998,2 45741  53.0503  47.6657 0002989 134.2041 225.9217 15.58010311321949
STARLINK-1500,45744,53.0364,0.0003405,15.36757642,453.37786850672,458.03171476682473,1 45744U 20038Q   26103.81889506  .00013659  00000+0  38474-3 0  9996,2 45744  53.0364  27.7148 0003405  51.8314 308.2994 15.36757642322211
STARLINK-1504,45746,53.0228,7.98e-05,15.55684985,399.62128488446706,400.7031014356953,1 45746U 20038S   26103.92058840  .00019740  00000+0  28824-3 0  9994,2 45746  53.0228 331.8962 0000798  79.0974 281.0126 15.55684985322991
STARLINK-1506,45747,53.0778,0.000379,15.27180113,481.6459194030522,486.84760629529137,1 45747U 20038T   26103.81583831  .00016994  00000+0  64076-3 0  9993,2 45747  53.0778  39.7740 0003790  31.6738 328.4488 15.27180113322054
STARLINK-1464,45751,53.0498,0.0003414,15.48450586,418.9367272900208,423.5793542238498,1 45751U 20038X   26103.02482032  .00055778  00000+0  10342-2 0  9991,2 45751  53.0498  40.8702 0003414  74.8647 285.2738 15.48450586321964
STARLINK-1477,45754,53.0485,0.0003295,15.16268986,514.8567241789297,519.4007042846088,1 45754U 20038AA  26103.58987950  .00019791  00000+0  10234-2 0  9999,2 45754  53.0485  54.1018 0003295  87.6243 272.5128 15.16268986321825
STARLINK-1478,45755,53.0487,0.0003348,15.61076432,382.282365084473,386.8106579637906,1 45755U 20038AB  26102.18096622  .00073253  00000+0  85206-3 0  9997,2 45755  53.0487  35.2185 0003348  62.9260 297.2094 15.61076432321950
STARLINK-1493,45759,53.0502,0.0004851,15.56539204,394.39509093320703,400.96899056654274,1 45759U 20038AF  26103.96731248  .00062927  00000+0  87056-3 0  9999,2 45759  53.0502  34.3883 0004851 129.7633 230.3805 15.56539204322126
STARLINK-1494,45760,53.0468,0.0004516,15.82617153,320.0164185382191,326.06892401731784,1 45760U 20038AG  26103.90441749  .00092138  00000+0  42895-3 0  9998,2 45760  53.0468 335.4621 0004516 151.5881 208.5388 15.82617153322953
STARLINK-1502,45764,53.0491,0.0006178,15.52945351,403.93926771812767,412.32438147780067,1 45764U 20038AL  26103.95777167  .00058466  00000+0  92320-3 0  9997,2 45764  53.0491  36.8239 0006178 117.4251 242.7387 15.52945351322105
STARLINK-1470,45772,53.046,0.0003406,15.31249937,469.7487536328281,474.41512277353195,1 45772U 20038AU  26103.43641262  .00025292  00000+0  83549-3 0  9999,2 45772  53.0460  12.6590 0003406 124.2665 235.8658 15.31249937322397
STARLINK-1482,45773,53.1604,0.0003604,15.33310828,463.47579884425613,468.4090112794247,1 45773U 20038AV  26103.07252040  .00034308  00000+0  10575-2 0  9998,2 45773  53.1604  30.9956 0003604 122.1006 238.0347 15.33310828322114
STARLINK-1496,45780,53.0495,6.13e-05,15.54585336,402.94256870443223,403.77398002507016,1 45780U 20038BC  26103.75457056  .00062339  00000+0  92716-3 0  9998,2 45780  53.0495   9.2468 0000613 224.1906 135.9055 15.54585336322454
STARLINK-1513,45786,53.1607,0.000149,15.30194703,474.20973353724094,476.2520371670753,1 45786U 20038BJ  26103.17670636  .00000901  00000+0  42560-4 0  9991,2 45786  53.1607  30.9629 0001490  96.8775 263.2396 15.30194703322123
STARLINK-1522,46027,53.0644,0.0002213,15.10851889,532.0711066927943,535.1302417874122,1 46027U 20055A   26103.89577530  .00013650  00000+0  82729-3 0  9992,2 46027  53.0644 327.6073 0002213 150.7074 209.4041 15.10851889314209
STARLINK-1523,46028,53.159,0.0001818,15.30185501,474.01241388503513,476.5043084383542,1 46028U 20055B   26103.33504069 -.00000392  00000+0 -11017-5 0  9994,2 46028  53.1590 325.7773 0001818  91.8580 268.2629 15.30185501314202
STARLINK-1526,46029,53.1593,0.0001398,15.30187123,474.2954140954298,476.2116220842872,1 46029U 20055C   26103.32871633 -.00002408  00000+0 -69218-4 0  9993,2 46029  53.1593 325.8195 0001398  92.1186 267.9975 15.30187123314194
STARLINK-1555,46032,53.1583,0.0002157,15.30321508,473.374102648545,476.3304822293039,1 46032U 20055F   26103.63942915  .00029032  00000+0  98479-3 0  9993,2 46032  53.1583 324.3562 0002157 258.7085 101.3674 15.30321508314241
STARLINK-1556,46033,53.1567,5.77e-05,15.29401581,477.20446565442035,477.99561770903074,1 46033U 20055G   26103.88377767  .00012030  00000+0  42794-3 0  9997,2 46033  53.1567 323.2380 0000577  18.8936 341.2085 15.29401581314254
STARLINK-1557,46034,53.1566,0.0001268,15.29357042,476.8638217310054,478.6024704000474,1 46034U 20055H   26103.87756927  .00002770  00000+0  10829-3 0  9990,2 46034  53.1566 323.1689 0001268  78.0389 282.0753 15.29357042314259
STARLINK-1558,46035,53.1607,0.0001186,15.30191837,474.4266323281727,476.0522532203986,1 46035U 20055J   26103.89443809  .00002045  00000+0  81158-4 0  9994,2 46035  53.1607 323.1861 0001186  93.3605 266.7531 15.30191837314284
STARLINK-1560,46036,53.1565,0.0001306,15.29347852,476.8652308703877,478.6559913264073,1 46036U 20055K   26103.87434221  .00001217  00000+0  54528-4 0  9992,2 46036  53.1565 323.2226 0001306  92.1356 267.9793 15.29347852314289
STARLINK-1567,46038,53.0861,7.39e-05,15.86658934,311.16327662247386,312.1520282721058,1 46038U 20055M   26103.88144126  .01459335  00000+0  49787-2 0  9995,2 46038  53.0861 317.1432 0000739 141.6798 218.4279 15.86658934314356
STARLINK-1569,46039,53.1576,0.000106,15.30193867,474.5069242525642,475.959838773445,1 46039U 20055N   26103.89758500  .00000832  00000+0  40216-4 0  9997,2 46039  53.1576 323.1628 0001060  70.4307 289.6808 15.30193867314275
STARLINK-1582,46043,53.1607,0.000149,15.30717567,472.64922383352405,474.69106236216703,1 46043U 20055S   26103.96867318  .00066310  00000+0  21956-2 0  9999,2 46043  53.1607 322.8203 0001490  72.6573 287.4590 15.30717567314280
STARLINK-1591,46045,53.1599,0.0001305,15.30178185,474.38583490561905,476.1745767963457,1 46045U 20055U   26103.86493775  .00001142  00000+0  50698-4 0  9991,2 46045  53.1599 323.3206 0001305  94.9852 265.1297 15.30178185314254
STARLINK-1524,46047,53.1601,0.0001248,15.30201141,474.35636468801476,476.0669605142002,1 46047U 20055W   26103.01000415  .00000634  00000+0  33523-4 0  9998,2 46047  53.1601 314.4262 0001248  87.9250 272.1893 15.30201141314320
STARLINK-1527,46048,53.1609,0.0001188,15.30192587,474.4230225351148,476.0513842458413,1 46048U 20055X   26103.86543696  .00001142  00000+0  50676-4 0  9998,2 46048  53.1609 310.5518 0001188  87.9950 272.1187 15.30192587314431
